#aV2013  5 21  0  0  0.00000000     288 DD+AD WGS84 FIT  NGA
## 1741 172800.00000000   300.00000000 56433 0.0000000000000
+   30     1  2  3  4  5  6  7  8  9 10 11 12 13 14 15 16 17
+         18 19 20 21 22 23 24 25 26 28 29 31 32  0  0  0  0
+          0  0  0  0  0  0  0  0  0  0  0  0  0  0  0  0  0
+          0  0  0  0  0  0  0  0  0  0  0  0  0  0  0  0  0
+          0  0  0  0  0  0  0  0  0  0  0  0  0  0  0  0  0
++         2  2  2  2  2  2  2  2  2  2  2  2  2  2  2  2  2
++         2  2  2  2  2  2  2  2  2  2  2  2  2  2  2  0  0
++         0  0  0  0  0  0  0  0  0  0  0  0  0  0  0  0  0
++         0  0  0  0  0  0  0  0  0  0  0  0  0  0  0  0  0
++         0  0  0  0  0  0  0  0  0  0  0  0  0  0  0  0  0
%c cc cc ccc ccc cccc cccc cccc cccc ccccc ccccc ccccc ccccc
%c cc cc ccc ccc cccc cccc cccc cccc ccccc ccccc ccccc ccccc
%f  0.0000000  0.000000000  0.00000000000  0.000000000000000
%f  0.0000000  0.000000000  0.00000000000  0.000000000000000
%i    0    0    0    0      0      0      0      0         0
%i    0    0    0    0      0      0      0      0         0
/*      NGA, ST. LOUIS,MO.                                  
/*   EPHEMERIS COMPUTED FROM  1 DAYS OF DATA
/*   EPOCHA SMOOTHER  
/* CCCCCCCCCCCCCCCCCCCCCCCCCCCCCCCCCCCCCCCCCCCCCCCCCCCCCCCCC
*  2013  5 21 14 30  0.00000000                                                 
P  1 -17505.080151  -4362.188130  19507.304869     28.507461                    
V  1 -10076.150689 -22669.794084 -14013.435800      0.041541                    
P  2  13654.893027  23028.933156  -1687.940961    433.215484                    
V  2  -1611.715152   3539.641763  30825.231535      0.018519                    
P  3 -18857.233400 -10367.574978 -16222.280646    209.787078                    
V  3  19390.824261  -3851.801404 -20524.352016      0.050409                    
P  4   5724.003761  24371.194885   8164.719858    224.027761                    
V  4  -8124.874618  -8046.554939  29004.457896      0.104529                    
P  5   8732.379785  13962.457328 -20837.868843   -395.175613                    
V  5 -15177.877727  21705.847607   8334.136212     -0.009549                    
P  6 -13375.573664 -13467.181661 -18638.011986    222.606967                    
V  6  23765.621873  -1733.769874 -15364.010883     -0.164240                    
P  7 -10540.293279  11531.105114 -21392.650978    216.254449                    
V  7 -12421.637728 -24285.932327  -7248.284215      0.042344                    
P  8  -4071.776666  19878.750402 -16691.247023      6.257070                    
V  8  -8913.761059 -19694.677068 -21720.045132      0.002573                    
P  9   7198.008844  24635.954996  -7187.808603    242.408346                    
V  9  -5550.023467  -6591.246793 -30578.800411      0.027074                    
P 10  -5699.326127  23194.818094 -11452.341782    -80.635776                    
V 10 -10565.780125  10101.614363  26803.541624     -0.013132                    
P 11 -21920.721158  -8988.249304  11825.672570   -384.014949                    
V 11  -7995.862570 -14201.264801 -24427.232451     -0.036452                    
P 12  17701.692685  -2694.793112  19505.661645    134.988957                    
V 12 -13357.502316  20991.560839  15197.363553      0.020740                    
P 13 -22515.409601   5450.646462 -13252.944307    117.138651                    
V 13 -16064.501724  -4120.949359  25747.241142     -0.036247                    
P 14   4493.410903 -14482.929636  21994.373364    220.819241                    
V 14  27169.270563   3724.373273  -3271.099959     -0.001654                    
P 15  26013.133093   3981.816548  -4539.518431   -120.022222                    
V 15  -5780.598215   2994.678315 -30443.591388     -0.015430                    
P 16  -7102.533065 -14199.482444 -21247.067845   -251.970879                    
V 16  16427.897015 -21358.463324   9122.314143      0.002460                    
P 17  -4464.700593  14755.465132  21827.658222     17.232172                    
V 17 -27046.627349  -2960.486419  -3795.398402     -0.038247                    
P 18  15766.942917 -20957.022298  -2312.306098    254.772242                    
V 18   1602.941718   5187.145428 -31046.062315      0.018382                    
P 19 -24167.035578  -8844.898208  -7506.047141   -374.705144                    
V 19   9527.539312   -859.259867 -29602.883073     -0.030663                    
P 20 -18936.331691   7619.216989  16786.245373     99.211754                    
V 20   8820.284746 -20056.020424  18930.525088      0.020448                    
P 21   8203.857281 -15483.914295 -19243.414188   -298.743342                    
V 21  13379.973768  22294.786998 -12410.546527     -0.021137                    
P 22   8372.606886 -23850.090422   8107.479667    168.629463                    
V 22   8668.167820  -6427.436672 -28692.643384      0.012085                    
P 23 -26476.583228    929.565616  -3822.137443     83.697230                    
V 23  -4701.032721  -2918.162155  30899.170693     -0.035911                    
P 24  18131.175343   8134.943578  17629.426710     -6.736639                    
V 24   8798.435764  20668.524613 -18531.035100     -0.007147                    
P 25  18875.487281 -14148.152461  12056.921816    100.180863                    
V 25  -6565.504232  14096.714783  26800.723236      0.043007                    
P 26  17484.859049  13320.531498 -15786.533390     21.370931                    
V 26 -18691.122394  -1577.444106 -22658.254695      0.154459                    
P 28 -12085.845068  22948.138503   5833.751565    260.478160                    
V 28  -5643.129547   4136.470407 -31233.089255      0.033287                    
P 29  22844.755781  -6006.371266 -12043.704932    437.624919                    
V 29  15069.569381   3839.423072  26599.024139      0.034685                    
P 31  -5834.153918 -24579.328371   7885.420353    315.109821                    
V 31   6255.093804   7920.157079  30225.990168      0.013369                    
P 32 -16426.781664  -3023.589815  20671.645643   -556.942959                    
V 32  15192.902674 -21266.301389   9537.191851     -0.015963                    
EOF
